{"type": "FeatureCollection", "features": [ {"type": "Feature", "properties": {"norad_id": 34792, "name": "COSMOS 2251 DEB", "group": "cosmos-2251-debris", "lat": -35.68784986541625, "lon": 136.71823653238766, "alt_km": 710.3854493684767, "timestamp": "2025-12-23T20:42:37.471185+00:00", "meta": {"OBJECT_NAME": "COSMOS 2251 DEB", "OBJECT_ID": "1993-036AAV", "EPOCH": "2025-12-22T04:28:07.603968", "MEAN_MOTION": 14.5602851, "ECCENTRICITY": 0.00123771, "INCLINATION": 74.0175, "RA_OF_ASC_NODE": 151.7792, "ARG_OF_PERICENTER": 246.3273, "MEAN_ANOMALY": 290.8722, "EPHEMERIS_TYPE": 0, "CLASSIFICATION_TYPE": "U", "NORAD_CAT_ID": 34792, "ELEMENT_SET_NO": 999, "REV_AT_EPOCH": 87787, "BSTAR": 0.0010753031, "MEAN_MOTION_DOT": 4.713e-05, "MEAN_MOTION_DDOT": 0}, "tle": {"line1": "1 34792U 93036AAV 25356.18619912  .00004713  00000+0  10753-2 0  9996", "line2": "2 34792  74.0175 151.7792 0012377 246.3273 290.8722 14.56028510877879"}}, "geometry": {"type": "Point", "coordinates": [136.71823653238766, -35.68784986541625]}}, {"type": "Feature", "properties": {"norad_id": 34793, "name": "COSMOS 2251 DEB", "group": "cosmos-2251-debris", "lat": 49.304252809245604, "lon": 30.330741379852284, "alt_km": 768.3707991480642, "timestamp": "2025-12-23T20:42:37.471196+00:00", "meta": {"OBJECT_NAME": "COSMOS 2251 DEB", "OBJECT_ID": "1993-036AAW", "EPOCH": "2025-12-23T02:27:36.859680", "MEAN_MOTION": 14.38660159, "ECCENTRICITY": 0.00507477, "INCLINATION": 74.0019, "RA_OF_ASC_NODE": 231.2224, "ARG_OF_PERICENTER": 22.7008, "MEAN_ANOMALY": 127.8194, "EPHEMERIS_TYPE": 0, "CLASSIFICATION_TYPE": "U", "NORAD_CAT_ID": 34793, "ELEMENT_SET_NO": 999, "REV_AT_EPOCH": 87479, "BSTAR": 0.00021426461, "MEAN_MOTION_DOT": 6.4e-06, "MEAN_MOTION_DDOT": 0}, "tle": {"line1": "1 34793U 93036AAW 25357.10250995  .00000640  00000+0  21426-3 0  9997", "line2": "2 34793  74.0019 231.2224 0050747  22.7008 127.8194 14.38660159874797"}}, "geometry": {"type": "Point", "coordinates": [30.330741379852284, 49.304252809245604]}}, {"type": "Feature", "properties": {"norad_id": 34796, "name": "COSMOS 2251 DEB", "group": "cosmos-2251-debris", "lat": -72.68564817949844, "lon": 82.22328196330207, "alt_km": 676.0094962940548, "timestamp": "2025-12-23T20:42:37.471206+00:00", "meta": {"OBJECT_NAME": "COSMOS 2251 DEB", "OBJECT_ID": "1993-036AAZ", "EPOCH": "2025-12-23T00:18:17.864064", "MEAN_MOTION": 14.48734486, "ECCENTRICITY": 0.01002809, "INCLINATION": 74.0288, "RA_OF_ASC_NODE": 197.0834, "ARG_OF_PERICENTER": 296.9424, "MEAN_ANOMALY": 214.3814, "EPHEMERIS_TYPE": 0, "CLASSIFICATION_TYPE": "U", "NORAD_CAT_ID": 34796, "ELEMENT_SET_NO": 999, "REV_AT_EPOCH": 88176, "BSTAR": 0.00057151487, "MEAN_MOTION_DOT": 2.267e-05, "MEAN_MOTION_DDOT": 0}, "tle": {"line1": "1 34796U 93036AAZ 25357.01270676  .00002267  00000+0  57151-3 0  9999", "line2": "2 34796  74.0288 197.0834 0100280 296.9424 214.3814 14.48734486881761"}}, "geometry": {"type": "Point", "coordinates": [82.22328196330207, -72.68564817949844]}}, {"type": "Feature", "properties": {"norad_id": 34797, "name": "COSMOS 2251 DEB", "group": "cosmos-2251-debris", "lat": 24.88400931327263, "lon": -108.39913271189543, "alt_km": 707.0175316109198, "timestamp": "2025-12-23T20:42:37.471216+00:00", "meta": {"OBJECT_NAME": "COSMOS 2251 DEB", "OBJECT_ID": "1993-036ABA", "EPOCH": "2025-12-22T12:22:54.757056", "MEAN_MOTION": 14.42950692, "ECCENTRICITY": 0.00710542, "INCLINATION": 73.9783, "RA_OF_ASC_NODE": 81.7691, "ARG_OF_PERICENTER": 193.6898, "MEAN_ANOMALY": 166.2334, "EPHEMERIS_TYPE": 0, "CLASSIFICATION_TYPE": "U", "NORAD_CAT_ID": 34797, "ELEMENT_SET_NO": 999, "REV_AT_EPOCH": 87556, "BSTAR": 0.0021692417, "MEAN_MOTION_DOT": 7.461e-05, "MEAN_MOTION_DDOT": 0}, "tle": {"line1": "1 34797U 93036ABA 25356.51591154  .00007461  00000+0  21692-2 0  9992", "line2": "2 34797  73.9783  81.7691 0071054 193.6898 166.2334 14.42950692875560"}}, "geometry": {"type": "Point", "coordinates": [-108.39913271189543, 24.88400931327263]}}, {"type": "Feature", "properties": {"norad_id": 34814, "name": "COSMOS 2251 DEB", "group": "cosmos-2251-debris", "lat": -70.65521939171177, "lon": -179.81550303645696, "alt_km": 759.956539309881, "timestamp": "2025-12-23T20:42:37.471226+00:00", "meta": {"OBJECT_NAME": "COSMOS 2251 DEB", "OBJECT_ID": "1993-036ABD", "EPOCH": "2025-12-23T04:46:16.254336", "MEAN_MOTION": 14.3693492, "ECCENTRICITY": 0.00554769, "INCLINATION": 73.8962, "RA_OF_ASC_NODE": 306.0405, "ARG_OF_PERICENTER": 193.3771, "MEAN_ANOMALY": 230.9861, "EPHEMERIS_TYPE": 0, "CLASSIFICATION_TYPE": "U", "NORAD_CAT_ID": 34814, "ELEMENT_SET_NO": 999, "REV_AT_EPOCH": 87483, "BSTAR": 0.00068608274, "MEAN_MOTION_DOT": 2.041e-05, "MEAN_MOTION_DDOT": 0}, "tle": {"line1": "1 34814U 93036ABD 25357.19879924  .00002041  00000+0  68608-3 0  9999", "line2": "2 34814  73.8962 306.0405 0055476 193.3771 230.9861 14.36934920874833"}}, "geometry": {"type": "Point", "coordinates": [-179.81550303645696, -70.65521939171177]}}, {"type": "Feature", "properties": {"norad_id": 34815, "name": "COSMOS 2251 DEB", "group": "cosmos-2251-debris", "lat": -73.90638084705571, "lon": 137.36748073088654, "alt_km": 601.3284915889744, "timestamp": "2025-12-23T20:42:37.471236+00:00", "meta": {"OBJECT_NAME": "COSMOS 2251 DEB", "OBJECT_ID": "1993-036ABE", "EPOCH": "2025-12-21T18:45:31.869504", "MEAN_MOTION": 14.78405815, "ECCENTRICITY": 0.00588158, "INCLINATION": 74.044, "RA_OF_ASC_NODE": 224.0458, "ARG_OF_PERICENTER": 291.2324, "MEAN_ANOMALY": 68.2575, "EPHEMERIS_TYPE": 0, "CLASSIFICATION_TYPE": "U", "NORAD_CAT_ID": 34815, "ELEMENT_SET_NO": 999, "REV_AT_EPOCH": 88761, "BSTAR": 0.00055531723, "MEAN_MOTION_DOT": 4.13e-05, "MEAN_MOTION_DDOT": 0}, "tle": {"line1": "1 34815U 93036ABE 25355.78161886  .00004130  00000+0  55532-3 0  9997", "line2": "2 34815  74.0440 224.0458 0058815 291.2324  68.2575 14.78405815887613"}}, "geometry": {"type": "Point", "coordinates": [137.36748073088654, -73.90638084705571]}}, {"type": "Feature", "properties": {"norad_id": 34816, "name": "COSMOS 2251 DEB", "group": "cosmos-2251-debris", "lat": 72.30226086379545, "lon": -119.96246412425813, "alt_km": 1024.7078013114178, "timestamp": "2025-12-23T20:42:37.471247+00:00", "meta": {"OBJECT_NAME": "COSMOS 2251 DEB", "OBJECT_ID": "1993-036ABF", "EPOCH": "2025-12-23T03:24:36.727200", "MEAN_MOTION": 13.58351314, "ECCENTRICITY": 0.03730444, "INCLINATION": 73.8873, "RA_OF_ASC_NODE": 126.1492, "ARG_OF_PERICENTER": 188.8277, "MEAN_ANOMALY": 349.1718, "EPHEMERIS_TYPE": 0, "CLASSIFICATION_TYPE": "U", "NORAD_CAT_ID": 34816, "ELEMENT_SET_NO": 999, "REV_AT_EPOCH": 82924, "BSTAR": 0.0012758256, "MEAN_MOTION_DOT": 1.439e-05, "MEAN_MOTION_DDOT": 0}, "tle": {"line1": "1 34816U 93036ABF 25357.14209175  .00001439  00000+0  12758-2 0  9995", "line2": "2 34816  73.8873 126.1492 0373044 188.8277 349.1718 13.58351314829249"}}, "geometry": {"type": "Point", "coordinates": [-119.96246412425813, 72.30226086379545]}}, {"type": "Feature", "properties": {"norad_id": 34818, "name": "COSMOS 2251 DEB", "group": "cosmos-2251-debris", "lat": -26.857955668208543, "lon": -91.84659418347846, "alt_km": 757.0893404588942, "timestamp": "2025-12-23T20:42:37.471257+00:00", "meta": {"OBJECT_NAME": "COSMOS 2251 DEB", "OBJECT_ID": "1993-036ABH", "EPOCH": "2025-12-22T05:26:11.246784", "MEAN_MOTION": 14.36978109, "ECCENTRICITY": 0.00245976, "INCLINATION": 74.0363, "RA_OF_ASC_NODE": 279.4958, "ARG_OF_PERICENTER": 353.0026, "MEAN_ANOMALY": 157.1903, "EPHEMERIS_TYPE": 0, "CLASSIFICATION_TYPE": "U", "NORAD_CAT_ID": 34818, "ELEMENT_SET_NO": 999, "REV_AT_EPOCH": 87506, "BSTAR": 0.00018981942, "MEAN_MOTION_DOT": 5.38e-06, "MEAN_MOTION_DDOT": 0}, "tle": {"line1": "1 34818U 93036ABH 25356.22651906  .00000538  00000+0  18982-3 0  9993", "line2": "2 34818  74.0363 279.4958 0024597 353.0026 157.1903 14.36978109875069"}}, "geometry": {"type": "Point", "coordinates": [-91.84659418347846, -26.857955668208543]}}, {"type": "Feature", "properties": {"norad_id": 34819, "name": "COSMOS 2251 DEB", "group": "cosmos-2251-debris", "lat": -67.05255928872785, "lon": -16.12751602323126, "alt_km": 678.1653207220352, "timestamp": "2025-12-23T20:42:37.471267+00:00", "meta": {"OBJECT_NAME": "COSMOS 2251 DEB", "OBJECT_ID": "1993-036ABJ", "EPOCH": "2025-12-23T02:19:29.502336", "MEAN_MOTION": 14.64114974, "ECCENTRICITY": 0.0015354, "INCLINATION": 74.0192, "RA_OF_ASC_NODE": 122.7469, "ARG_OF_PERICENTER": 217.4398, "MEAN_ANOMALY": 319.6, "EPHEMERIS_TYPE": 0, "CLASSIFICATION_TYPE": "U", "NORAD_CAT_ID": 34819, "ELEMENT_SET_NO": 999, "REV_AT_EPOCH": 88380, "BSTAR": 0.001695851, "MEAN_MOTION_DOT": 8.907e-05, "MEAN_MOTION_DDOT": 0}, "tle": {"line1": "1 34819U 93036ABJ 25357.09686924  .00008907  00000+0  16959-2 0  9997", "line2": "2 34819  74.0192 122.7469 0015354 217.4398 319.6000 14.64114974883800"}}, "geometry": {"type": "Point", "coordinates": [-16.12751602323126, -67.05255928872785]}}, {"type": "Feature", "properties": {"norad_id": 34823, "name": "COSMOS 2251 DEB", "group": "cosmos-2251-debris", "lat": -57.96758230928851, "lon": 54.0074600621137, "alt_km": 792.4499736097359, "timestamp": "2025-12-23T20:42:37.471277+00:00", "meta": {"OBJECT_NAME": "COSMOS 2251 DEB", "OBJECT_ID": "1993-036ABN", "EPOCH": "2025-12-22T23:32:59.618976", "MEAN_MOTION": 14.54990022, "ECCENTRICITY": 0.01539908, "INCLINATION": 74.0418, "RA_OF_ASC_NODE": 82.8922, "ARG_OF_PERICENTER": 165.1039, "MEAN_ANOMALY": 195.4739, "EPHEMERIS_TYPE": 0, "CLASSIFICATION_TYPE": "U", "NORAD_CAT_ID": 34823, "ELEMENT_SET_NO": 999, "REV_AT_EPOCH": 88530, "BSTAR": 0.00056765995, "MEAN_MOTION_DOT": 2.835e-05, "MEAN_MOTION_DDOT": 0}, "tle": {"line1": "1 34823U 93036ABN 25356.98124559  .00002835  00000+0  56766-3 0  9995", "line2": "2 34823  74.0418  82.8922 0153990 165.1039 195.4739 14.54990022885307"}}, "geometry": {"type": "Point", "coordinates": [54.0074600621137, -57.96758230928851]}}]}